STARLINK-31211          
1 59031U 24038J   26068.24717880 -.00000834  00000+0 -20818-4 0  9993
2 59031  42.9996  29.2471 0000681 253.7027 106.3750 15.27571669114585
FLOCK 4G-15             
1 62678U 25009BX  26068.71779869  .00012647  00000+0  47575-3 0  9991
2 62678  97.4054 151.1927 0003699 316.8208  43.2740 15.27266411121358
